{
  "type": "FeatureCollection",
  "features": [
    {
      "type": "Feature",
      "properties": {
        "norad_id": 51444,
        "name": "CSG-2",
        "group": "resource",
        "lat": 26.852159212910863,
        "lon": -14.321746180986617,
        "alt_km": 621.1222838816766,
        "timestamp": "2025-12-06T05:40:08.894258+00:00",
        "meta_object_name": "CSG-2",
        "meta_object_id": "2022-008A",
        "meta_epoch": "2025-12-05T07:55:08.249376",
        "meta_mean_motion": 14.82152386,
        "meta_eccentricity": 0.00015046,
        "meta_inclination": 97.8807,
        "meta_ra_of_asc_node": 160.7648,
        "meta_arg_of_pericenter": 88.9172,
        "meta_mean_anomaly": 271.2214,
        "meta_ephemeris_type": 0,
        "meta_classification_type": "U",
        "meta_norad_cat_id": 51444,
        "meta_element_set_no": 999,
        "meta_rev_at_epoch": 20787,
        "meta_bstar": 0.00013691375,
        "meta_mean_motion_dot": 1.038e-05,
        "meta_mean_motion_ddot": 0,
        "tle_line1": "1 51444U 22008A   25339.32995659  .00001038  00000+0  13691-3 0  9994",
        "tle_line2": "2 51444  97.8807 160.7648 0001504  88.9172 271.2214 14.82152386207879"
      },
      "geometry": {
        "type": "Point",
        "coordinates": [
          -14.321746180986617,
          26.852159212910863
        ]
      }
    },
    {
      "type": "Feature",
      "properties": {
        "norad_id": 52912,
        "name": "GAOFEN-12 03",
        "group": "resource",
        "lat": 50.07099149817568,
        "lon": 57.22107436006679,
        "alt_km": 625.202742128261,
        "timestamp": "2025-12-06T05:40:08.894268+00:00",
        "meta_object_name": "GAOFEN-12 03",
        "meta_object_id": "2022-069A",
        "meta_epoch": "2025-12-05T06:21:51.920928",
        "meta_mean_motion": 14.7958085,
        "meta_eccentricity": 0.00023093,
        "meta_inclination": 97.8488,
        "meta_ra_of_asc_node": 226.7866,
        "meta_arg_of_pericenter": 74.9077,
        "meta_mean_anomaly": 285.239,
        "meta_ephemeris_type": 0,
        "meta_classification_type": "U",
        "meta_norad_cat_id": 52912,
        "meta_element_set_no": 999,
        "meta_rev_at_epoch": 18593,
        "meta_bstar": 0.00031737452,
        "meta_mean_motion_dot": 2.326e-05,
        "meta_mean_motion_ddot": 0,
        "tle_line1": "1 52912U 22069A   25339.26518427  .00002326  00000+0  31737-3 0  9991",
        "tle_line2": "2 52912  97.8488 226.7866 0002309  74.9077 285.2390 14.79580850185932"
      },
      "geometry": {
        "type": "Point",
        "coordinates": [
          57.22107436006679,
          50.07099149817568
        ]
      }
    },
    {
      "type": "Feature",
      "properties": {
        "norad_id": 54754,
        "name": "SWOT",
        "group": "resource",
        "lat": 20.444046032462005,
        "lon": 111.06959067418045,
        "alt_km": 892.7393098731945,
        "timestamp": "2025-12-06T05:40:08.894279+00:00",
        "meta_object_name": "SWOT",
        "meta_object_id": "2022-173A",
        "meta_epoch": "2025-12-05T06:37:08.001120",
        "meta_mean_motion": 14.00172925,
        "meta_eccentricity": 3.403e-05,
        "meta_inclination": 77.61,
        "meta_ra_of_asc_node": 297.0659,
        "meta_arg_of_pericenter": 134.7528,
        "meta_mean_anomaly": 225.3652,
        "meta_ephemeris_type": 0,
        "meta_classification_type": "U",
        "meta_norad_cat_id": 54754,
        "meta_element_set_no": 999,
        "meta_rev_at_epoch": 15201,
        "meta_bstar": 0.0001078529,
        "meta_mean_motion_dot": 1.57e-06,
        "meta_mean_motion_ddot": 0,
        "tle_line1": "1 54754U 22173A   25339.27578705  .00000157  00000+0  10785-3 0  9999",
        "tle_line2": "2 54754  77.6100 297.0659 0000340 134.7528 225.3652 14.00172925152018"
      },
      "geometry": {
        "type": "Point",
        "coordinates": [
          111.06959067418045,
          20.444046032462005
        ]
      }
    },
    {
      "type": "Feature",
      "properties": {
        "norad_id": 57654,
        "name": "GAOFEN-12 04",
        "group": "resource",
        "lat": -62.31995642741774,
        "lon": -88.53456977584113,
        "alt_km": 638.2520877032812,
        "timestamp": "2025-12-06T05:40:08.894289+00:00",
        "meta_object_name": "GAOFEN-12 04",
        "meta_object_id": "2023-123A",
        "meta_epoch": "2025-12-05T07:14:00.934944",
        "meta_mean_motion": 14.79665434,
        "meta_eccentricity": 0.00014594,
        "meta_inclination": 97.912,
        "meta_ra_of_asc_node": 255.1715,
        "meta_arg_of_pericenter": 72.9787,
        "meta_mean_anomaly": 287.1585,
        "meta_ephemeris_type": 0,
        "meta_classification_type": "U",
        "meta_norad_cat_id": 57654,
        "meta_element_set_no": 999,
        "meta_rev_at_epoch": 12395,
        "meta_bstar": 0.00041312117,
        "meta_mean_motion_dot": 3.049e-05,
        "meta_mean_motion_ddot": 0,
        "tle_line1": "1 57654U 23123A   25339.30139971  .00003049  00000+0  41312-3 0  9992",
        "tle_line2": "2 57654  97.9120 255.1715 0001459  72.9787 287.1585 14.79665434123957"
      },
      "geometry": {
        "type": "Point",
        "coordinates": [
          -88.53456977584113,
          -62.31995642741774
        ]
      }
    },
    {
      "type": "Feature",
      "properties": {
        "norad_id": 59065,
        "name": "PARS 1",
        "group": "resource",
        "lat": -16.809973852476112,
        "lon": -46.69818630523348,
        "alt_km": 451.51047292629664,
        "timestamp": "2025-12-06T05:40:08.894299+00:00",
        "meta_object_name": "PARS 1",
        "meta_object_id": "2024-039Q",
        "meta_epoch": "2025-12-05T06:21:43.508160",
        "meta_mean_motion": 15.40726111,
        "meta_eccentricity": 0.00126938,
        "meta_inclination": 97.4624,
        "meta_ra_of_asc_node": 310.041,
        "meta_arg_of_pericenter": 94.508,
        "meta_mean_anomaly": 265.7617,
        "meta_ephemeris_type": 0,
        "meta_classification_type": "U",
        "meta_norad_cat_id": 59065,
        "meta_element_set_no": 999,
        "meta_rev_at_epoch": 9873,
        "meta_bstar": 0.00047125939,
        "meta_mean_motion_dot": 0.00019248,
        "meta_mean_motion_ddot": 0,
        "tle_line1": "1 59065U 24039Q   25339.26508690  .00019248  00000+0  47126-3 0  9997",
        "tle_line2": "2 59065  97.4624 310.0410 0012693  94.5080 265.7617 15.40726111 98734"
      },
      "geometry": {
        "type": "Point",
        "coordinates": [
          -46.69818630523348,
          -16.809973852476112
        ]
      }
    },
    {
      "type": "Feature",
      "properties": {
        "norad_id": 59371,
        "name": "RESURS-P 4",
        "group": "resource",
        "lat": -28.252580932735437,
        "lon": -69.37557969271678,
        "alt_km": 475.50977966669507,
        "timestamp": "2025-12-06T05:40:08.894310+00:00",
        "meta_object_name": "RESURS-P 4",
        "meta_object_id": "2024-061A",
        "meta_epoch": "2025-12-05T07:50:49.104672",
        "meta_mean_motion": 15.31996297,
        "meta_eccentricity": 0.0002024,
        "meta_inclination": 97.2537,
        "meta_ra_of_asc_node": 285.8092,
        "meta_arg_of_pericenter": 54.8566,
        "meta_mean_anomaly": 305.2865,
        "meta_ephemeris_type": 0,
        "meta_classification_type": "U",
        "meta_norad_cat_id": 59371,
        "meta_element_set_no": 999,
        "meta_rev_at_epoch": 9407,
        "meta_bstar": 0.00023195356,
        "meta_mean_motion_dot": 7.09e-05,
        "meta_mean_motion_ddot": 0,
        "tle_line1": "1 59371U 24061A   25339.32695723  .00007090  00000+0  23195-3 0  9995",
        "tle_line2": "2 59371  97.2537 285.8092 0002024  54.8566 305.2865 15.31996297 94077"
      },
      "geometry": {
        "type": "Point",
        "coordinates": [
          -69.37557969271678,
          -28.252580932735437
        ]
      }
    },
    {
      "type": "Feature",
      "properties": {
        "norad_id": 59625,
        "name": "LEGION 1",
        "group": "resource",
        "lat": -21.464228714283188,
        "lon": -128.04733263166798,
        "alt_km": 524.6851891446495,
        "timestamp": "2025-12-06T05:40:08.894320+00:00",
        "meta_object_name": "LEGION 1",
        "meta_object_id": "2024-081A",
        "meta_epoch": "2025-12-05T06:36:38.553408",
        "meta_mean_motion": 15.16367704,
        "meta_eccentricity": 0.000454,
        "meta_inclination": 97.5228,
        "meta_ra_of_asc_node": 53.9785,
        "meta_arg_of_pericenter": 348.4225,
        "meta_mean_anomaly": 11.6902,
        "meta_ephemeris_type": 0,
        "meta_classification_type": "U",
        "meta_norad_cat_id": 59625,
        "meta_element_set_no": 999,
        "meta_rev_at_epoch": 8814,
        "meta_bstar": 0.00049345257,
        "meta_mean_motion_dot": 9.517e-05,
        "meta_mean_motion_ddot": 0,
        "tle_line1": "1 59625U 24081A   25339.27544622  .00009517  00000+0  49345-3 0  9995",
        "tle_line2": "2 59625  97.5228  53.9785 0004540 348.4225  11.6902 15.16367704 88140"
      },
      "geometry": {
        "type": "Point",
        "coordinates": [
          -128.04733263166798,
          -21.464228714283188
        ]
      }
    }
  ]
}